{"feature":{"type":"Feature","geometry":{"type":"MultiPolygon","coordinates":[[[[22.583357877,49.097026129],[22.68011262,49.039341575],[22.765604406,49.053377663],[22.833461126,49.025936342],[22.846983162,49.00237035],[22.897921373,49.004863716],[22.868769327,49.003553081],[22.891730278,49.007843384],[22.864456427,49.066723713],[22.892640208,49.094551422],[22.831073896,49.110988106],[22.793483447,49.137734687],[22.789175975,49.157616435],[22.739104079,49.157869655],[22.755997197,49.182589317],[22.71865835,49.164826896],[22.707378495,49.174468894],[22.747596335,49.215385429],[22.714782572,49.226452362],[22.739434973,49.247323394],[22.74684,49.36],[22.696520531,49.495071262],[22.651398145,49.508186797],[22.640716009,49.529894948],[22.674630352,49.549138366],[22.805413924,49.693328784],[22.84726213,49.70969678],[22.902096623,49.768422928],[22.96173474,49.804464308],[22.970714004,49.838482679],[22.995707715,49.842200212],[23.21601393,50.047483768],[23.279259734,50.086296471],[23.279826409,50.100580573],[23.470399001,50.217725],[23.580950164,50.265979919],[23.638841078,50.320478541],[23.686003335,50.331491713],[23.696269438,50.366044054],[23.727112503,50.388067092],[23.997399159,50.412227155],[24.069854063,50.50320869],[24.097760307,50.636895834],[24.088213576,50.635267553],[24.091048527,50.66363267],[24.062235749,50.677779747],[24.072006745,50.720361827],[24.016505121,50.722916779],[24.0238914,50.750844467],[24.011062977,50.754335126],[24.023793981,50.766265508],[23.977840058,50.768562127],[23.957239381,50.794681069],[23.989443145,50.837408912],[24.100354589,50.83589637],[24.145704169,50.869201642],[24.052377779,50.891298725],[23.970486024,50.950310911],[23.957156654,50.990078986],[23.91493632,51.006913199],[23.935707253,51.014603439],[23.915786019,51.028094627],[23.931579565,51.038095394],[23.912993779,51.041580382],[23.91150714,51.074503673],[23.875651175,51.077061843],[23.85658159,51.100001153],[23.84928286,51.123903453],[23.869636187,51.129754413],[23.869143005,51.150618675],[23.739078665,51.212032014],[23.726779707,51.261472161],[23.695224288,51.291532916],[23.648240375,51.287340851],[23.635552634,51.328248012],[23.665753605,51.367356109],[23.686384498,51.368401582],[23.676715311,51.39367342],[23.702599344,51.403556831],[23.692773306,51.414128704],[23.70289525,51.419826187],[23.676887538,51.430104056],[23.685480283,51.445246251],[23.649358746,51.446241378],[23.646790887,51.459301292],[23.676439523,51.470878329],[23.67000238,51.482800683],[23.616439999,51.503143],[23.676711951,51.506431231],[23.636213391,51.549504191],[23.661364234,51.583305736],[23.604072924,51.621460415],[23.678206691,51.653097921],[23.782715871,51.667488404],[23.788320224,51.640126914],[23.912551036,51.63146364],[23.880223193,51.608303474],[23.881221212,51.591907703],[23.943279,51.596779],[23.996324657,51.580074261],[24.075075001,51.618789],[24.120620584,51.666751609],[24.270097555,51.716891807],[24.319021,51.750746001],[24.294646734,51.804025441],[24.33976538,51.864158362],[24.372418462,51.878444177],[24.625585836,51.902651481],[24.74960439,51.881144546],[24.829498986,51.912951929],[24.843004597,51.896125242],[24.918907758,51.911336972],[24.954825454,51.896174837],[25.099754883,51.953464478],[25.191629972,51.969182657],[25.225835223,51.960911266],[25.264222702,51.968046299],[25.340116177,51.933220664],[25.409957599,51.921695865],[25.509858293,51.92115691],[25.527147473,51.940234725],[25.628282281,51.903352315],[25.59269741,51.92439252],[25.780063922,51.922141731],[25.765488135,51.94957041],[25.779865851,51.949098281],[25.824578868,51.942749932],[25.825502469,51.924983018],[25.923227958,51.915474862],[25.996050614,51.93355607],[26.043233532,51.925594918],[26.190806798,51.86231282],[26.371025169,51.862964192],[26.395239822,51.878281687],[26.395720888,51.831115601],[26.42740229,51.833029503],[26.466706887,51.799500148],[26.546881239,51.795855695],[26.592736076,51.830955441],[26.691695735,51.823387543],[26.754008764,51.80093806],[26.751664477,51.773824047],[26.790796565,51.756992836],[26.846966138,51.765679454],[26.94821169,51.735883838],[26.994577173,51.768833897],[27.201321615,51.773441657],[27.208195504,51.66385183],[27.272758143,51.654327194],[27.240256138,51.601751942],[27.359187282,51.615886026],[27.425363854,51.605550002],[27.45413066,51.619716575],[27.468174785,51.606036527],[27.486627302,51.612325116],[27.482223308,51.59328689],[27.503405983,51.587185773],[27.527906224,51.607680023],[27.512334411,51.607258709],[27.507994234,51.628819174],[27.539895118,51.620566282],[27.549991684,51.637176009],[27.618963179,51.60544243],[27.645524188,51.615993945],[27.722922046,51.603444042],[27.7204807,51.561291275],[27.676300422,51.539303899],[27.671905505,51.513360558],[27.761797355,51.473847651],[27.799914831,51.532863345],[27.849446994,51.543206749],[27.824834619,51.577011716],[27.840041479,51.607847259],[27.819456629,51.617225765],[27.835701072,51.624874939],[27.911836737,51.616330565],[27.919992001,51.577702449],[27.974810403,51.594001427],[27.939335479,51.557019641],[28.043581574,51.566234163],[28.105343522,51.579188557],[28.130057639,51.607292067],[28.155030267,51.611137324],[28.17065958,51.644021035],[28.267519551,51.680054614],[28.254796396,51.621180234],[28.279969587,51.623335242],[28.342369081,51.57687402],[28.352645774,51.53981804],[28.469127416,51.593181769],[28.658153921,51.567436349],[28.629590001,51.561287076],[28.648473656,51.558404952],[28.683226757,51.444373979],[28.736147746,51.46516545],[28.733028283,51.434757627],[28.75265208,51.41496096],[28.779936092,51.454029106],[28.761384311,51.487028343],[28.819494606,51.558701826],[28.904855353,51.588464828],[28.96651296,51.591348],[28.97358408,51.573159001],[28.999380366,51.573564909],[29.117169539,51.65647353],[29.175406687,51.651096398],[29.157787694,51.628824587],[29.185698241,51.620953672],[29.177416361,51.607021387],[29.205858959,51.596187107],[29.214541205,51.567037017],[29.252141188,51.56745847],[29.259136644,51.529542575],[29.245629517,51.500074184],[29.270629603,51.458160036],[29.304363122,51.454352811],[29.320542989,51.377256051],[29.360859673,51.378507045],[29.372586018,51.39831067],[29.416095913,51.413501754],[29.494952449,51.396443944],[29.519467037,51.421865158],[29.515107941,51.445304979],[29.537163962,51.482552963],[29.579472556,51.461466596],[29.63333055,51.506032232],[29.668525855,51.502671356],[29.706541837,51.527809808],[29.73952517,51.522195349],[29.745462655,51.493167011],[29.725297853,51.49134413],[29.739088992,51.45896213],[29.793374801,51.441611848],[29.790750344,51.457875136],[29.809768617,51.459087581],[29.877774109,51.445421785],[29.889478794,51.483308642],[29.926593135,51.489860735],[29.964864782,51.471553074],[30.01250616,51.489947357],[30.014428694,51.505465909],[30.117229242,51.487345421],[30.128358868,51.505998585],[30.161976551,51.488769594],[30.18089996,51.512413057],[30.288397808,51.463536848],[30.345071491,51.424336528],[30.357597953,51.378759014],[30.324070575,51.361578559],[30.334658193,51.352367164],[30.398238515,51.312470062],[30.462346881,51.306913938],[30.453519411,51.273445398],[30.504518444,51.279705434],[30.541638593,51.255787975],[30.53895242,51.259508569],[30.568772077,51.270034825],[30.574486034,51.305571608],[30.653836952,51.342929353],[30.633791107,51.359153188],[30.653572203,51.377374729],[30.621355933,51.426739658],[30.590351085,51.423881191],[30.57777017,51.446572661],[30.607460583,51.466468855],[30.567477925,51.514113088],[30.584899482,51.544765865],[30.545873764,51.542720689],[30.527022794,51.570003535],[30.553819498,51.578408364],[30.506398662,51.600215411],[30.556863783,51.623587466],[30.548555443,51.642678712],[30.579278151,51.645467458],[30.560809215,51.704195562],[30.625361615,51.713744502],[30.650919844,51.760381097],[30.611913389,51.765376753],[30.668670078,51.78960171],[30.660554968,51.816951158],[30.69144502,51.827661793],[30.706873988,51.866735676],[30.749888507,51.90392295],[30.802200438,51.898859495],[30.825187929,51.921157695],[30.805632529,51.947417958],[30.86014653,51.972429771],[30.889004084,51.968749031],[30.884889836,51.984456822],[30.911003257,51.9881993],[30.895052542,52.002419117],[30.939682063,52.013548615],[30.933305446,52.039456102],[30.948650977,52.054819788],[30.932051174,52.071986651],[30.952432349,52.075453411],[30.949737001,52.08944],[30.993129801,52.077790869],[31.139750314,52.103111364],[31.160789163,52.078136798],[31.213073125,52.071357303],[31.21876328,52.054908931],[31.253613811,52.04217071],[31.297759173,52.051770864],[31.324880321,52.104965735],[31.432176723,52.143314152],[31.483257222,52.116498621],[31.660907139,52.116604269],[31.721971316,52.095818237],[31.77274,52.111582],[31.819326255,52.098433084],[31.866768904,52.11061126],[31.959987001,52.075109],[31.914288072,52.043316139],[31.964687393,52.053873991],[32.09552442,52.033604615],[32.10062179,52.045604832],[32.133757999,52.043938999],[32.147279345,52.069149875],[32.199326701,52.066077373],[32.224420773,52.087150737],[32.290441044,52.103024355],[32.320283582,52.1363925],[32.368179929,52.146672311],[32.324616744,52.150917643],[32.347158577,52.183216689],[32.323784787,52.222424086],[32.34692525,52.245057901],[32.399877869,52.246860993],[32.383506592,52.263130484],[32.3931435,52.278353818],[32.369606013,52.276704564],[32.351775742,52.316795744],[32.376494233,52.337594146],[32.49031099,52.314198027],[32.503277059,52.327495985],[32.550113292,52.326521172],[32.577309117,52.301023658],[32.60776797,52.305000005],[32.700640752,52.24787183],[32.754201613,52.266943533],[32.816948532,52.259220774],[32.833294323,52.279240805],[32.884344011,52.273659043],[32.885278585,52.248809227],[32.901526472,52.245491647],[32.960656961,52.273560003],[32.996143929,52.272204991],[32.996742748,52.287990091],[33.060697941,52.328823988],[33.072098645,52.326409651],[33.067284085,52.30335101],[33.138236009,52.346957964],[33.169491773,52.341708543],[33.169974968,52.372892961],[33.200199525,52.373634879],[33.305740406,52.351029904],[33.380385811,52.372245092],[33.416637868,52.360557002],[33.409585217,52.350398295],[33.428887583,52.345258192],[33.413051638,52.327741829],[33.446852187,52.342039583],[33.439477276,52.352935871],[33.454792999,52.365217444],[33.519162001,52.354109999],[33.483479104,52.313625839],[33.560229117,52.302184746],[33.54428,52.323653],[33.581563053,52.310814685],[33.604361268,52.333679451],[33.683425999,52.357958],[33.808889811,52.365595226],[33.838209845,52.360262734],[33.854840746,52.332755579],[33.838901281,52.320563142],[33.920877,52.304763],[33.944356831,52.283328227],[33.937545,52.250204001],[34.000620993,52.227297936],[33.998319069,52.211986881],[34.016312079,52.201902857],[34.052275108,52.201486304],[34.065306774,52.182749679],[34.053890875,52.171217829],[34.116175828,52.140734358],[34.087459013,52.109029873],[34.099616339,52.093333108],[34.062287928,52.072949817],[34.101321054,52.041222012],[34.100574,52.004587],[34.139823,52.000175],[34.129212798,51.984420476],[34.143111917,51.968140206],[34.190263243,51.968533781],[34.219454,51.920117001],[34.259359233,51.90952083],[34.244881207,51.881429912],[34.303375358,51.8875355],[34.415503329,51.825801134],[34.409176109,51.782158364],[34.440414898,51.743332604],[34.422277813,51.722251204],[34.308830598,51.72022414],[34.290805653,51.704958797],[34.127897672,51.689467595],[34.080257954,51.666030336],[34.104538748,51.666416101],[34.129781357,51.64277539],[34.167304287,51.645445313],[34.182065662,51.596918783],[34.21096536,51.60040544],[34.216260482,51.574331332],[34.238731271,51.58396004],[34.259744855,51.533218845],[34.307603314,51.519356201],[34.290532336,51.508924134],[34.29171402,51.479788403],[34.245061613,51.45648835],[34.254775153,51.439882067],[34.220950266,51.417045823],[34.227736761,51.399503917],[34.292463148,51.387919697],[34.286137557,51.37469883],[34.304208151,51.379478839],[34.338465408,51.356267636],[34.31171433,51.333966857],[34.281430628,51.334795038],[34.282099346,51.310604569],[34.244607415,51.29593589],[34.255052561,51.281755163],[34.230824849,51.265097757],[34.30550172,51.238256574],[34.383953474,51.273651703],[34.486750506,51.244288647],[34.54063877,51.252794897],[34.5799009,51.233888501],[34.604046159,51.254531172],[34.662040614,51.247346999],[34.668622178,51.197497721],[34.716695806,51.17153563],[34.784574706,51.183881563],[34.834504213,51.169224096],[34.833484802,51.182955317],[34.862454596,51.19928425],[34.898116258,51.19302678],[34.980047463,51.235619642],[35.037943325,51.217746252],[35.038290999,51.204273],[35.072668196,51.232594667],[35.150304574,51.223258989],[35.123244796,51.165207072],[35.142601913,51.133682312],[35.174651527,51.121412796],[35.163039258,51.109034936],[35.173417042,51.087263377],[35.147659929,51.082642473],[35.18927952,51.053444072],[35.273531347,51.057812667],[35.306720377,51.078540945],[35.405966032,51.048117931],[35.409162311,51.02640356],[35.374694116,51.008668361],[35.323730009,51.012772861],[35.352090351,50.973199726],[35.32540642,50.946891327],[35.400139289,50.914417897],[35.403490689,50.9028122],[35.379813327,50.895625248],[35.40158727,50.879635059],[35.38196489,50.870156658],[35.419034948,50.843732979],[35.411846872,50.801941891],[35.488026559,50.777001442],[35.464099992,50.734962036],[35.473413,50.725048],[35.460137,50.689324],[35.495694614,50.678580121],[35.485651661,50.655854319],[35.462555069,50.666271199],[35.39283393,50.649945704],[35.424954643,50.603026705],[35.390323999,50.579974177],[35.427732792,50.561978239],[35.43624266,50.52955349],[35.476798991,50.488488298],[35.586458918,50.448477462],[35.583694864,50.394280158],[35.610973065,50.37398333],[35.601588136,50.367133935],[35.667549319,50.351533478],[35.738511806,50.35432728],[35.802717202,50.398044705],[35.792889891,50.415929288],[35.831940228,50.433819709],[35.872335737,50.42261897],[35.889086674,50.43891202],[35.935864783,50.430789695],[36.065565798,50.451313055],[36.154631363,50.433161735],[36.177002701,50.40154517],[36.283752378,50.335606258],[36.273884491,50.323912003],[36.297058247,50.291972309],[36.366300311,50.287779132],[36.433582213,50.330569868],[36.440253401,50.310874081],[36.586158925,50.285446595],[36.593773501,50.275807444],[36.574609539,50.274740382],[36.580446889,50.262577859],[36.560303351,50.250709773],[36.647540917,50.217719556],[36.679421494,50.23761841],[36.688944912,50.266905409],[36.870366557,50.335193808],[36.937446907,50.350264231],[37.152510256,50.356242966],[37.292369413,50.401210993],[37.330139388,50.436452611],[37.411939098,50.43309188],[37.482569768,50.458717116],[37.485525527,50.436182852],[37.463662035,50.424201905],[37.472297152,50.368475501],[37.576910511,50.306342595],[37.635739115,50.310918837],[37.614499297,50.219850994],[37.643553958,50.190940974],[37.640351118,50.176041947],[37.708731001,50.133089761],[37.755389999,50.078564],[37.797321387,50.084197918],[37.923472095,50.036254629],[37.961981897,49.983035032],[38.044026463,49.932630762],[38.018789831,49.915677527],[38.033867417,49.901651049],[38.045461948,49.914692104],[38.124725354,49.942391242],[38.127340907,49.922195048],[38.217699764,49.979505916],[38.185879617,50.022607016],[38.178541606,50.079905257],[38.274965755,50.073365757],[38.312947094,50.088239481],[38.331522989,50.073597426],[38.349987639,50.006465384],[38.416585649,49.981146835],[38.433831923,50.00009297],[38.468618148,49.995066466],[38.4884696,49.963489467],[38.527170346,49.958419254],[38.584443862,49.97740734],[38.646868091,49.955850409],[38.680546959,49.9744746],[38.685995864,50.00767399],[38.717680148,49.98388074],[38.685935427,49.962024332],[38.693870924,49.934653461],[38.790673905,49.878108221],[38.901015205,49.869296196],[38.918246559,49.858585557],[38.906636583,49.826696283],[38.930311122,49.796780688],[39.02202193,49.821492533],[39.066857696,49.815507135],[39.179821992,49.888628704],[39.226265267,49.839939986],[39.227243388,49.808159711],[39.250379834,49.777260257],[39.285101479,49.755411952],[39.378521197,49.738593304],[39.44258072,49.759984905],[39.609941265,49.733540297],[39.591332266,49.718895251],[39.658894399,49.615322114],[39.749040098,49.597629106],[39.807637961,49.556646456],[39.891933324,49.558587962],[39.934809676,49.573181272],[39.951885947,49.596854498],[40.064954543,49.598852146],[40.135578212,49.616495762],[40.168901001,49.56889804],[40.038462628,49.519965307],[40.029357111,49.453329835],[40.194553606,49.346753517],[40.185591074,49.2846813],[40.227882852,49.260571792],[40.221824097,49.250329949],[40.136766983,49.239363824],[40.077446503,49.186938244],[40.030873194,49.179427929],[39.938559298,49.082890891],[39.937833141,49.056360582],[39.808917732,49.06084243],[39.766573647,49.040107845],[39.671730068,49.040614394],[39.684981515,49.033962553],[39.663978961,49.000422807],[39.677100517,48.989560679],[39.703552595,48.999366391],[39.726603612,48.975522965],[39.752090866,48.98628778],[39.790421956,48.938709944],[39.775299341,48.92199589],[39.81884919,48.907762961],[39.827121981,48.886306026],[39.838035052,48.903048008],[39.853133095,48.890584088],[39.925065837,48.895577358],[39.993210487,48.868116833],[40.004044753,48.901232853],[40.035187468,48.915803745],[40.060021042,48.90886752],[40.079047117,48.86983889],[39.97596137,48.793160065],[39.799796767,48.842398725],[39.768026106,48.765677472],[39.743811922,48.770633679],[39.73929043,48.74352736],[39.70422645,48.720581534],[39.723112789,48.683497466],[39.660559061,48.609238468],[39.687439735,48.586713848],[39.789860994,48.593146005],[39.850862613,48.56735866],[39.866924716,48.507236579],[39.847477718,48.501939461],[39.845765435,48.474653543],[39.898328617,48.447027543],[39.888994239,48.44179532],[39.918484898,48.397381228],[39.906032115,48.389784937],[39.923727453,48.375164885],[39.941865426,48.386474346],[39.935433257,48.361543278],[39.947251075,48.354908524],[39.845237447,48.332845971],[39.84109484,48.309998062],[39.886919414,48.308777739],[39.915503287,48.287097661],[39.914862476,48.269554477],[39.990475455,48.317020943],[40.020341952,48.253809111],[40.007889058,48.224393796],[39.940924571,48.228474172],[39.937100773,48.180610982],[39.909694239,48.179716438],[39.903927961,48.143655815],[39.870847156,48.117696262],[39.86871713,48.079246583],[39.832847967,48.066062608],[39.881545814,48.044575521],[39.77616347,48.039732966],[39.81626079,48.00123075],[39.824617076,47.955203681],[39.805903627,47.950538915],[39.793629144,47.919136668],[39.793726122,47.86933731],[39.762557144,47.870762578],[39.763293772,47.846339089],[39.738173719,47.827675411],[39.626640079,47.8390192],[39.519906853,47.82504739],[39.476872549,47.860184835],[39.413089712,47.830997544],[39.386984913,47.870743574],[39.355679723,47.87240214],[39.24202807,47.866730916],[39.234926698,47.853938689],[39.149797927,47.842488002],[39.083017352,47.851663557],[39.066460722,47.892947208],[39.074429209,47.869496781],[38.842332216,47.866865262],[38.826033632,47.845204321],[38.829243462,47.814721427],[38.789095699,47.815610835],[38.783767508,47.787987465],[38.796484127,47.773493881],[38.788881632,47.73663785],[38.771350261,47.72659939],[38.772741722,47.685708755],[38.736182425,47.68009967],[38.733630924,47.70027977],[38.663029679,47.699734618],[38.666060458,47.66904339],[38.629234616,47.669449972],[38.616368919,47.644516994],[38.456634968,47.644064824],[38.456339298,47.616979924],[38.350618061,47.616588582],[38.350804397,47.576192214],[38.310959101,47.575979075],[38.307326708,47.546502325],[38.284592825,47.544289207],[38.302017766,47.393309254],[38.286555145,47.391414509],[38.2866585,47.37362638],[38.2445675,47.364361015],[38.220220959,47.325840804],[38.22092117,47.30527417],[38.335138583,47.306089919],[38.322630682,47.281314713],[38.330949806,47.263700605],[38.23439232,47.230932329],[38.229613287,47.119245816],[38.089671055,47.024242094],[38.135466591,47.060831565],[38.107963254,47.095898842],[38.064874736,47.112033894],[38.034123315,47.090403792],[37.970852726,47.094511087],[37.98239029,47.087000813],[37.898549805,47.111410763],[37.709768234,47.080264648],[37.629274941,47.094847761],[37.586418722,47.078692236],[37.574507679,47.09953155],[37.57432061,47.085732077],[37.520139396,47.071730948],[37.329440517,46.890526191],[37.320977301,46.910638004],[37.237696661,46.951143427],[37.062548086,46.884006736],[36.987319412,46.863484941],[36.90145822,46.812551446],[36.816054928,46.677791412],[36.765821466,46.631715805],[36.75032705,46.633036805],[36.757948454,46.656266717],[36.778304846,46.645919121],[36.828675397,46.699700369],[36.810003519,46.732712716],[36.720799022,46.779250946],[36.614557407,46.778528006],[36.37172192,46.706797515],[36.233468429,46.563001734],[36.293833351,46.638714478],[36.270219219,46.634539134],[36.277319802,46.621984375],[36.272209207,46.612260903],[36.266966643,46.626918976],[36.258115422,46.596009308],[36.248970465,46.63732173],[36.195547063,46.670484052],[35.924386312,46.660552484],[35.725513127,46.587548114],[35.593299911,46.488159318],[35.452376407,46.440525669],[35.277658658,46.264447438],[35.133118557,46.300494948],[35.100403685,46.300137163],[35.034523042,46.261259298],[34.895192981,46.240266994],[34.832470057,46.20374011],[34.809645001,46.16104196],[34.863523331,45.965701159],[34.930293167,45.83245214],[34.888496011,45.860890475],[34.851102616,45.822447991],[34.798036,45.833265],[34.802831,45.901209],[34.762511285,45.917949737],[34.735012722,45.971703328],[34.680436523,46.011531448],[34.725997352,45.993896043],[34.761454945,46.007378491],[34.707760668,46.0495681],[34.712902346,46.079335719],[34.669748477,46.094174462],[34.75994359,46.105827692],[34.760268783,46.089554711],[34.789037796,46.072025787],[34.804376,46.084788],[34.808312452,46.12815395],[34.744858421,46.118084922],[34.696205658,46.183361406],[34.625003678,46.170371293],[34.643532967,46.096524582],[34.607871382,46.032541081],[34.544485401,45.981198144],[34.527923401,45.997686134],[34.497830464,45.98554684],[34.479540104,45.952808564],[34.479402123,46.002257195],[34.438731935,46.011992807],[34.455963724,45.967583705],[34.446440666,45.973378196],[34.417191084,46.017206533],[34.430416091,46.043704436],[34.404528001,46.061807],[34.394491681,46.093347831],[34.433955479,46.121472124],[34.475133361,46.125814845],[34.493949729,46.08566336],[34.504445351,46.116434174],[34.542192193,46.13031874],[34.566370872,46.103735696],[34.552891852,46.089132321],[34.570894279,46.08599837],[34.590191123,46.114479395],[34.593830527,46.167405469],[34.545165585,46.196509524],[34.524277659,46.185317894],[34.536631587,46.148736306],[34.503856078,46.134557054],[34.440280413,46.153976265],[34.380506553,46.197882198],[34.350990074,46.187175752],[34.328866529,46.219475164],[34.312492911,46.218796464],[34.301215998,46.190486849],[34.315328732,46.167308495],[34.342949606,46.167391665],[34.318751868,46.107308568],[34.299055641,46.092661252],[34.296466615,46.138298116],[34.273669978,46.138539961],[34.276531067,46.088672955],[34.229007937,46.064645988],[34.235445564,46.089540162],[34.210087278,46.106435319],[34.201153716,46.073196697],[34.107004647,46.130642066],[34.042078401,46.11984713],[33.955280663,46.220259298],[33.873953804,46.233577744],[33.837333663,46.222994255],[33.774168928,46.255008168],[33.765291471,46.241894655],[33.722553485,46.240347964],[33.727518647,46.210806581],[33.742752145,46.208675891],[33.717443595,46.195787865],[33.671850751,46.217433329],[33.700644138,46.199729069],[33.705414001,46.171378999],[33.727664799,46.17318165],[33.736245001,46.138938001],[33.771621001,46.144030999],[33.772955505,46.126314274],[33.799787221,46.118869791],[33.826041447,46.149174056],[33.811631741,46.148095449],[33.803658999,46.178886],[33.833966168,46.181492536],[33.82254,46.171851],[33.844353,46.161445001],[33.832430001,46.17528],[33.845122,46.173269],[33.864493999,46.139742],[33.839351,46.120172],[33.84661748,46.110039734],[33.827044486,46.119908057],[33.800750619,46.086714648],[33.828951247,46.105395263],[33.877026583,46.088735573],[33.90122587,46.04609468],[33.872381094,46.034043179],[33.893288123,46.036794998],[33.901394224,46.02015623],[33.911081608,46.063308376],[33.940384,46.071223],[33.942317615,46.047062411],[33.927387001,46.046852],[33.964573001,46.029213999],[33.957448001,46.006679499],[33.965621001,46.028731],[33.991373299,46.029257905],[33.969119001,46.029569],[33.944176002,46.056421],[33.998269332,46.062316666],[33.971549,46.074832],[33.958935001,46.063975],[33.933054934,46.082798958],[33.944193528,46.093758],[34.021144001,46.101619999],[34.05641,46.088657999],[34.060471,46.064228],[34.082657001,46.074036],[34.091464001,46.045453999],[34.157774001,46.018878],[34.167018,46.00562],[34.147605001,45.989495],[34.18633,46.001834],[34.140693,45.969393],[34.101306001,45.981352999],[34.120517001,45.953397],[34.152661001,45.952487999],[34.150144999,45.937726999],[34.184499001,45.931499],[34.170274,45.94723],[34.220460001,45.949178],[34.187239,46.023169],[34.165229,46.026809],[34.17525,46.015863],[34.164811,46.014037],[34.122712001,46.046601999],[34.123937001,46.060838999],[34.104332998,46.050424999],[34.111437,46.068277],[34.240590001,46.031582],[34.226226001,46.016389],[34.235364,45.976185],[34.240833,45.994694999],[34.254397998,45.984605],[34.236816,46.013031],[34.256208,46.032769],[34.269996001,46.017953],[34.258329,46.035166],[34.282445,46.042851],[34.269968001,46.049703999],[34.285715001,46.042275999],[34.283813,46.002995],[34.309591001,46.005977],[34.321,45.988545999],[34.337385,46.015322999],[34.315342999,46.027151],[34.346504,46.031012],[34.323146,46.038978999],[34.356275466,46.036852231],[34.437156001,45.948145999],[34.407511,45.942403],[34.418335001,45.921215],[34.38996,45.917467],[34.391640001,45.939282],[34.382325001,45.928659999],[34.379174,45.899177],[34.411858,45.905055001],[34.400671999,45.884214999],[34.429887,45.908167],[34.420333,45.874271],[34.4399545,45.890761999],[34.428217999,45.934266],[34.440410001,45.945429999],[34.474594374,45.944859319],[34.489786118,45.919590534],[34.476204001,45.861434],[34.521087074,45.894961395],[34.535053014,45.923897875],[34.524842325,45.928981721],[34.568723878,45.908865887],[34.590779001,45.915805],[34.560987199,45.951624123],[34.55406756,45.975204911],[34.569382197,45.979175416],[34.556547351,45.988790328],[34.648323172,45.940657944],[34.636790257,45.918290761],[34.612992001,45.919444],[34.616481689,45.892838609],[34.632141154,45.91363666],[34.624446529,45.885176494],[34.555367301,45.861761355],[34.554158995,45.842101607],[34.511211001,45.804053],[34.460757,45.802316],[34.474177,45.78201],[34.546817,45.792930999],[34.656435115,45.866815108],[34.760700182,45.899548832],[34.772365647,45.87437137],[34.75873056,45.864576952],[34.735267,45.877846],[34.675314,45.855860999],[34.659773523,45.797231751],[34.75104476,45.822926215],[34.765635544,45.80481114],[34.741936,45.814511],[34.754215155,45.797236975],[34.783623694,45.792219132],[34.739856,45.744904999],[34.70721,45.746497],[34.673831,45.719138],[34.719754001,45.707266],[34.877852761,45.750186795],[34.844167455,45.721985441],[34.913462644,45.680824742],[34.981152928,45.682555934],[34.9906997,45.654511746],[35.055450735,45.605868372],[35.097192173,45.529361346],[35.03737569,45.619381241],[35.020195001,45.5853],[35.056974,45.581175],[35.052355,45.568676999],[35.078253,45.556884999],[35.070493,45.541181999],[35.088744,45.534227],[35.109558189,45.486940463],[35.004749045,45.430972833],[35.002810377,45.396665969],[34.950375162,45.37921413],[34.978042515,45.359114438],[35.059982655,45.362683317],[35.068493999,45.373926001],[35.042882001,45.412756],[35.080943432,45.363834629],[35.124972999,45.338127999],[35.20338721,45.340782484],[35.364951692,45.272960037],[35.316310353,45.249161697],[35.364837647,45.243755886],[35.383382141,45.259441],[35.453170001,45.268212],[35.447988999,45.257524999],[35.470609999,45.257660999],[35.462452999,45.269790999],[35.48166937,45.26850896],[35.464758501,45.2788815],[35.476742,45.294916],[35.421627776,45.31542459],[35.412998323,45.304865679],[35.428925682,45.303567251],[35.415851689,45.301632923],[35.062452,45.622958],[35.029141486,45.673641116],[35.005660098,45.681359332],[34.920628966,45.832516724],[35.072636785,45.63386691],[35.295471001,45.418968],[35.407535001,45.333897],[35.518300001,45.284278],[35.7208,45.334974],[35.761230166,45.373361561],[35.748786797,45.393832414],[35.819229127,45.431615773],[35.820728839,45.461150479],[35.845184958,45.47304669],[35.872209027,45.466729093],[35.845644525,45.448141625],[35.873879362,45.415718641],[35.978999882,45.37053368],[36.050603784,45.386939562],[36.072398294,45.40687061],[36.072645,45.442034999],[36.125568561,45.462208845],[36.284391194,45.481467893],[36.325932877,45.470431102],[36.344183587,45.483511066],[36.413955215,45.445782551],[36.476210055,45.456340376],[36.553417228,45.423511952],[36.596032,45.437766],[36.613510912,45.422104372],[36.607595,45.409206001],[36.646226236,45.38291005],[36.596766177,45.346302174],[36.478969994,45.359159876],[36.47135366,45.331790473],[36.49390882,45.317859776],[36.417488917,45.284526885],[36.428893885,45.257887817],[36.408118788,45.260156143],[36.42642399,45.254617376],[36.413516704,45.243038745],[36.4285219,45.256027652],[36.40169853,45.212051277],[36.420467,45.136355],[36.452723824,45.096385657],[36.374534758,45.059237287],[36.259289063,45.051988274],[36.22532606,45.028229038],[36.031096775,45.050259874],[35.953582998,45.013185848],[35.911516445,45.020243388],[35.838393427,44.999484176],[35.778859715,45.067296825],[35.696099086,45.106024674],[35.582274554,45.130513231],[35.497113478,45.118043564],[35.431416805,45.08888934],[35.386544629,45.048953916],[35.391111573,45.024672802],[35.425303,45.013491001],[35.357145868,44.987352248],[35.383670333,44.947292862],[35.342802967,44.96649563],[35.263348254,44.966334967],[35.239688,44.91823],[35.157650427,44.893788786],[35.130196998,44.823767],[35.082269,44.792334],[35.04744,44.800965],[35.050947,44.815261],[35.030529,44.830231999],[34.965070542,44.841017256],[34.909685134,44.816003696],[34.72261,44.810275001],[34.459815,44.712166],[34.416419,44.673957],[34.370217,44.591547],[34.349387,44.582969999],[34.347067998,44.548831],[34.306574953,44.55317673],[34.250833806,44.50682434],[34.168444698,44.495512232],[34.126278896,44.428690103],[33.970478555,44.391675661],[33.861518581,44.40700519],[33.737961,44.387429],[33.707996,44.420767],[33.649094723,44.426699439],[33.630459064,44.479006525],[33.595178523,44.494529515],[33.597936859,44.496820981],[33.593681623,44.499689254],[33.584486753,44.490141917],[33.487284244,44.49785995],[33.378576789,44.583240076],[33.402380528,44.590769],[33.411648035,44.563152641],[33.415925257,44.587823669],[33.438452665,44.572661849],[33.421876727,44.593899269],[33.434190093,44.597653556],[33.434516851,44.603609163],[33.448186484,44.594865927],[33.468225168,44.611812189],[33.471656857,44.592189899],[33.474068359,44.611812814],[33.499907625,44.603902475],[33.506834738,44.615739986],[33.527071291,44.618792467],[33.527934494,44.597239123],[33.531962142,44.617068805],[33.569942969,44.613571935],[33.601878773,44.609870118],[33.567435718,44.629890514],[33.572299211,44.622466173],[33.509602123,44.624522263],[33.541011113,44.6435867],[33.543394573,44.643864687],[33.537325994,44.647392114],[33.548902064,44.721721978],[33.534105564,44.79133233],[33.553297998,44.839614],[33.593531288,44.845970838],[33.605747085,44.865256681],[33.603870584,44.995653972],[33.567961529,45.076208531],[33.510791898,45.135260809],[33.390723388,45.19795413],[33.259758958,45.148004314],[33.148722,45.203281],[32.982713999,45.329627915],[32.911040212,45.360384841],[32.754700524,45.365216246],[32.652296986,45.315354192],[32.494115952,45.346775308],[32.513705,45.375552],[32.479924658,45.395663179],[32.584299351,45.480190895],[32.692246656,45.522806192],[32.69685731,45.510091219],[32.790003884,45.56164262],[32.829648644,45.547671015],[32.845096831,45.577012414],[32.821904195,45.586507686],[32.898310791,45.632788996],[33.068208501,45.704866187],[33.139587708,45.71979306],[33.178551027,45.807341447],[33.17842006,45.775617751],[33.238337397,45.750890434],[33.351638414,45.783906309],[33.427946605,45.835293996],[33.496714262,45.857667258],[33.502603407,45.840295751],[33.526673685,45.848035544],[33.543466337,45.83563631],[33.566744967,45.86859774],[33.613597362,45.890283335],[33.683041948,45.843105484],[33.679111999,45.906155001],[33.759239515,45.934905209],[33.739808,45.952332],[33.618137,45.9469175],[33.632029001,45.966408999],[33.614722,46.052798],[33.642654999,46.079706],[33.615874046,46.127596834],[33.636708999,46.140223001],[33.615070368,46.134385942],[33.586614611,46.159384083],[33.538785,46.118503001],[33.511933463,46.122919967],[33.516610039,46.098809749],[33.568587052,46.075629875],[33.495449968,46.073897684],[33.492318769,46.053282496],[33.517134001,46.030121],[33.462741936,46.050622388],[33.423758627,46.029996568],[33.365551039,46.076248019],[33.373820469,46.090479486],[33.330474737,46.115343601],[33.312385633,46.103348552],[33.315140095,46.076333301],[33.28413722,46.077538905],[33.280441484,46.097092349],[33.304967,46.093565999],[33.311386,46.111776999],[33.283146988,46.133448339],[33.220174065,46.132676514],[33.207468855,46.124326124],[33.213316075,46.106348838],[33.200244107,46.109578495],[33.209423309,46.144015666],[33.227763714,46.154229402],[33.20536732,46.174031311],[33.224433232,46.216317082],[33.199957512,46.188327],[33.186893661,46.194920865],[33.184329338,46.155950348],[33.135050693,46.12485087],[33.031589313,46.156231309],[33.014709655,46.122547869],[33.028004681,46.111493887],[32.908209317,46.105011855],[32.767124076,46.122391777],[32.600614001,46.098182],[32.546926107,46.082212549],[32.542909993,46.066121267],[32.046768005,46.171397147],[31.646771269,46.232729447],[31.57836784,46.25746629],[31.553301282,46.277677059],[31.598035398,46.250552786],[31.646723176,46.245469814],[31.797252443,46.330950861],[31.789081283,46.347272712],[31.810122001,46.366731],[31.806945502,46.47893137],[31.712520899,46.479886064],[31.694864051,46.449835035],[31.709116468,46.436378812],[31.692257845,46.443344693],[31.709628896,46.428847056],[31.522761437,46.561899043],[31.511956187,46.577047386],[31.549849553,46.600281484],[31.516492134,46.619247102],[31.372740772,46.623459128],[31.34938742,46.600331714],[31.176431799,46.627528164],[31.184809178,46.639594846],[30.830696447,46.549326917],[30.796755914,46.558261111],[30.750168479,46.544033104],[30.731321899,46.506763945],[30.75932799,46.491266775],[30.772558922,46.441177761],[30.752126811,46.37522211],[30.680792376,46.324662086],[30.55820795,46.156090202],[30.481757883,46.081555501],[30.21757932,45.863089787],[29.710086584,45.577123968],[29.631678426,45.51192612],[29.628803312,45.483069151],[29.604040251,45.480536815],[29.631270401,45.474890156],[29.645462959,45.452405333],[29.660515395,45.462006662],[29.652854093,45.474639063],[29.708547311,45.457898604],[29.705969218,45.46955612],[29.74513935,45.489939721],[29.748068487,45.467302532],[29.781376968,45.467450876],[29.772805419,45.434699497],[29.77367705,45.452117957],[29.754985896,45.443859093],[29.765795671,45.32178232],[29.739821218,45.246163032],[29.756997738,45.222595068],[29.734494901,45.227374123],[29.722691192,45.209240616],[29.707190253,45.219773918],[29.685941764,45.203272699],[29.659894499,45.247607566],[29.676793694,45.276929032],[29.650882872,45.34019079],[29.550346,45.409156],[29.427387999,45.44327],[29.327331042,45.44824552],[29.293226128,45.427548128],[29.238010274,45.432628071],[29.169495,45.394926],[28.963885999,45.329945],[28.940077779,45.279405659],[28.797503,45.335079],[28.780866,45.323238],[28.802695,45.301899],[28.751622,45.281513],[28.791387,45.242201],[28.718867,45.224317],[28.55908,45.24901],[28.342752558,45.323262542],[28.282207619,45.397606353],[28.278539908,45.446015499],[28.211248746,45.467071288],[28.247461076,45.507547051],[28.305865999,45.546775999],[28.415499504,45.513979471],[28.426736218,45.530534212],[28.427620558,45.486125258],[28.515253,45.499863],[28.491505966,45.571207893],[28.544116877,45.580071064],[28.515778,45.665345999],[28.482979,45.659762001],[28.480596154,45.678566178],[28.518786557,45.737249862],[28.588684384,45.728924667],[28.579482538,45.769951608],[28.709234943,45.779893406],[28.69662213,45.817928907],[28.786241416,45.832390167],[28.757133752,45.957102069],[28.979016147,46.003462159],[29.003663304,46.045284613],[28.950455059,46.093940186],[29.067582,46.195511],[28.949186861,46.260453554],[28.993688135,46.331901645],[28.930330588,46.45731937],[29.025882248,46.462515066],[29.023250626,46.479990429],[28.988918951,46.489014128],[29.033042457,46.490925669],[29.06310803,46.512140449],[29.163432069,46.515225976],[29.161667855,46.544739021],[29.235360382,46.558488793],[29.239950101,46.503093906],[29.25527994,46.485784637],[29.219935063,46.463509113],[29.246809507,46.41933576],[29.20657164,46.386299876],[29.240645734,46.376031242],[29.26664499,46.393554191],[29.263096822,46.405683421],[29.324106707,46.414679106],[29.308519346,46.464957489],[29.336351185,46.473583625],[29.331679753,46.495980729],[29.350326603,46.504236582],[29.396536322,46.425100218],[29.386638678,46.446383691],[29.447883344,46.498732144],[29.503371019,46.45982073],[29.479765342,46.441355803],[29.493235275,46.431796887],[29.565546861,46.416276481],[29.5801425,46.360687514],[29.602970732,46.353380003],[29.676771329,46.361149791],[29.660031594,46.436016806],[29.734257262,46.435174138],[29.726357832,46.466965326],[29.74080728,46.472867429],[29.776399803,46.454409714],[29.786754998,46.419850384],[29.82245561,46.395689911],[29.805120771,46.385453756],[29.890698537,46.352175453],[29.886316,46.371511],[29.937978092,46.40023424],[30.021725002,46.382976],[30.057846,46.39833],[30.088548665,46.383716],[30.16359113,46.413079205],[30.156336858,46.428867855],[30.133938446,46.410734172],[30.095568823,46.4396985],[30.097281246,46.425754168],[30.082985671,46.434605827],[30.078311521,46.423470434],[30.056694618,46.427402075],[30.064072914,46.442365584],[30.023008609,46.441660332],[30.026083215,46.452756371],[29.993656836,46.461980831],[30.023296549,46.468600518],[29.993992509,46.474277249],[30.016850002,46.481362927],[29.991128459,46.477959585],[30.00088912,46.495614608],[29.987490784,46.493785783],[29.986939706,46.509678378],[29.960376567,46.490615034],[29.960478301,46.509811093],[29.935579845,46.494417722],[29.943330089,46.501935922],[29.905915519,46.514347707],[29.913206663,46.521724536],[29.875579701,46.546789215],[29.94851073,46.560534933],[29.934083,46.581295001],[29.959983998,46.611741],[29.944932452,46.646377361],[29.972745298,46.688350457],[29.974466999,46.754016],[29.934937999,46.805907001],[29.978206,46.816923999],[29.969177,46.832029],[29.949449001,46.841721],[29.905080866,46.819859042],[29.883559076,46.850694712],[29.883868572,46.886255798],[29.74937768,46.860635732],[29.718615524,46.931968554],[29.648010606,46.919214184],[29.639408566,46.955041302],[29.57130217,46.940018166],[29.556049491,46.957728693],[29.596053713,46.963617409],[29.602189,47.041575],[29.628365001,47.045106],[29.612039001,47.099904],[29.548016,47.093574999],[29.549836001,47.075704999],[29.530263001,47.075293999],[29.494566999,47.130697999],[29.580797,47.135825999],[29.551125,47.251732],[29.597969363,47.257058958],[29.574300495,47.370368327],[29.487250656,47.356051219],[29.486196999,47.306129],[29.426526,47.291824001],[29.42273,47.304396],[29.397812,47.300516],[29.382706136,47.344132898],[29.396911675,47.353586177],[29.390594759,47.37938471],[29.337395297,47.370551504],[29.317854839,47.447803259],[29.245234658,47.414489311],[29.242100996,47.461815914],[29.190232132,47.424550583],[29.190905629,47.468333378],[29.15730259,47.459143025],[29.18677596,47.475701407],[29.190211109,47.51435512],[29.151476901,47.505737728],[29.116328436,47.55456783],[29.184050788,47.571583775],[29.217464492,47.612354217],[29.208992155,47.628554037],[29.233749468,47.642138285],[29.208814877,47.641506335],[29.218725429,47.682551221],[29.230577058,47.683689645],[29.203811462,47.719427106],[29.250052488,47.752526256],[29.275384999,47.803984],[29.219956586,47.797413847],[29.199157301,47.818890825],[29.224688228,47.855222249],[29.281023606,47.888417324],[29.214892329,47.896148389],[29.201633032,47.88430396],[29.174394314,47.993416096],[29.089251106,47.981336552],[29.097531644,47.960150666],[29.079395351,47.971338038],[29.086237656,47.946936889],[29.069781222,47.943542916],[29.033141648,47.942466987],[28.961549133,47.979242315],[28.924865018,47.960992456],[28.839390208,48.03484073],[28.852028795,48.06090438],[28.833282697,48.072839294],[28.868075954,48.069341598],[28.84700091,48.078870657],[28.857814827,48.10311338],[28.833519978,48.128664313],[28.68779028,48.124551821],[28.682254235,48.146703248],[28.647665311,48.143277228],[28.568898086,48.175591875],[28.502868424,48.151112482],[28.520995455,48.138101917],[28.49884614,48.127154672],[28.490758898,48.065528845],[28.45104086,48.080090863],[28.420848445,48.122281042],[28.439921704,48.143015194],[28.426777786,48.173153249],[28.38387385,48.175420969],[28.349802315,48.135567496],[28.304632495,48.140742395],[28.307261172,48.16103889],[28.368562676,48.205651115],[28.352140156,48.246678717],[28.207315065,48.204809128],[28.1865054,48.215482568],[28.175988001,48.257713001],[28.145994,48.262815999],[28.130267752,48.24154883],[28.087566836,48.234774709],[28.093805555,48.294064701],[28.072272429,48.318481864],[27.953314216,48.328747978],[27.882576627,48.372059473],[27.871551858,48.405096971],[27.763080099,48.456044598],[27.645231826,48.441025069],[27.590419875,48.460955451],[27.597799873,48.49103504],[27.532941003,48.469483],[27.532691936,48.469587979],[27.466249831,48.448647858],[27.447155119,48.408860088],[27.38494035,48.40978409],[27.373523403,48.441689336],[27.319607535,48.443564601],[27.28629932,48.371477364],[27.235770331,48.372831562],[27.192245111,48.394821574],[27.127863411,48.377845885],[27.0872256,48.412974997],[27.084517604,48.434574023],[27.062104828,48.421220501],[27.014205483,48.424954152],[27.039796717,48.41083815],[27.047313092,48.378509142],[27.002438454,48.379504587],[26.995355601,48.359479905],[26.932368433,48.36288564],[26.894545767,48.383504173],[26.901256049,48.396950318],[26.873174277,48.419965273],[26.7751877,48.418360907],[26.753613473,48.398904944],[26.720253869,48.410390392],[26.709029031,48.405326249],[26.765086468,48.353613522],[26.824184593,48.344339407],[26.831378133,48.313670585],[26.817340925,48.295236712],[26.76687239,48.302314152],[26.758863498,48.322416026],[26.739256933,48.31288005],[26.694708231,48.35986258],[26.681812023,48.355319612],[26.69593365,48.327180065],[26.616418055,48.274047242],[26.630012969,48.259649276],[26.627786707,48.246392883],[26.614247692,48.250164678],[26.62069899,48.239518921],[26.586459704,48.246496337],[26.571930057,48.21956389],[26.550259862,48.224967501],[26.524130076,48.2081228],[26.467910191,48.220927335],[26.437693862,48.193604731],[26.33327648,48.184001925],[26.334321145,48.159002509],[26.297858818,48.133488193],[26.267271939,48.07671152],[26.212038898,48.050613069],[26.184628358,47.994769735],[26.101005041,47.978261318],[25.914479967,47.977359066],[25.891942022,47.961150958],[25.84669764,47.96833104],[25.774712964,47.93944253],[25.626184449,47.948677163],[25.310926306,47.914207566],[25.269697903,47.892378554],[25.230030818,47.893120818],[25.22182759,47.858903991],[25.179972309,47.825630958],[25.167302844,47.791884963],[25.129300715,47.778849763],[25.115369493,47.754637281],[25.053305038,47.746337111],[25.040137405,47.725221243],[24.922332958,47.726808068],[24.883215079,47.724275003],[24.878570081,47.752592002],[24.836430084,47.779627003],[24.827946085,47.820494003],[24.706316095,47.840242004],[24.6710371,47.865647004],[24.673861101,47.896463004],[24.635365104,47.924534004],[24.628388104,47.948087004],[24.597262108,47.946287004],[24.562720914,47.96845792],[24.573234839,48.009234042],[24.552521477,47.958679531],[24.502052057,47.952287345],[24.435831782,47.970342436],[24.350183589,47.91534516],[24.324871729,47.925853206],[24.225371313,47.896559082],[24.194934677,47.91642101],[24.11243079,47.914730495],[24.098041646,47.936549264],[24.007745055,47.967393386],[23.863496288,47.931978453],[23.819466027,47.982383366],[23.770267724,47.996023428],[23.666896348,47.983806602],[23.617027056,48.008244084],[23.566460252,48.002896823],[23.529008752,48.019791084],[23.501823178,47.969106719],[23.460528815,47.973858772],[23.287915768,48.046750772],[23.276409435,48.059686926],[23.292065537,48.073132906],[23.267836056,48.100165512],[23.189163648,48.097719059],[23.173920691,48.120008021],[23.113973195,48.086557072],[23.123339,48.077408759],[23.105206957,48.065730806],[23.109231295,48.035211027],[23.089972699,48.005463412],[23.013568383,47.990460121],[22.927120019,48.019087794],[22.920347354,48.006666729],[22.947495316,47.967256313],[22.895879476,47.954041345],[22.835625631,47.989849337],[22.866035876,48.012088865],[22.881541335,48.054721122],[22.836575739,48.079683515],[22.824747751,48.11707381],[22.806402958,48.106027534],[22.802268375,48.121682843],[22.772264703,48.121463465],[22.770466785,48.108909988],[22.735107884,48.119302577],[22.672748802,48.091685919],[22.590235531,48.107610995],[22.598148551,48.145178821],[22.561408705,48.181575841],[22.570376021,48.196067739],[22.53168991,48.208853139],[22.502140116,48.248442075],[22.400914312,48.249036771],[22.384459472,48.234147715],[22.338520328,48.278947053],[22.336697685,48.307863031],[22.312957134,48.325709624],[22.317687258,48.354003079],[22.267359696,48.360875545],[22.240028829,48.38625781],[22.265016516,48.409936688],[22.20706346,48.425667904],[22.144967452,48.403351664],[22.136912295,48.419427058],[22.171304575,48.587492105],[22.250249408,48.647426833],[22.339595767,48.68400503],[22.361729984,48.730174502],[22.345508987,48.766097734],[22.387535141,48.799986335],[22.383570547,48.865484582],[22.421021709,48.884520903],[22.424741058,48.929219094],[22.477273846,48.991135037],[22.545451173,49.006751808],[22.553132601,49.079479135],[22.583357877,49.097026129]],[[33.577890449,44.575312547],[33.53067752,44.586073682],[33.578390102,44.572907203],[33.577890449,44.575312547]],[[33.53067752,44.586073682],[33.52820536,44.549421743],[33.528420001,44.549193],[33.53067752,44.586073682]],[[34.139966705,47.477229322],[34.139282725,47.477513963],[34.156447508,47.481962607],[33.955439977,47.457392047],[34.139477913,47.477380894],[34.139966705,47.477229322]],[[33.955439977,47.457392047],[33.937737096,47.516444653],[33.936240092,47.516281894],[33.955439977,47.457392047]],[[32.572457442,49.75305365],[32.57404213,49.702542759],[32.572556488,49.752932348],[32.572457442,49.75305365]],[[32.57404213,49.702542759],[32.708447202,49.656803849],[32.708438801,49.656859531],[32.57404213,49.702542759]],[[32.478863509,49.340850112],[32.466251379,49.328242119],[32.47937068,49.340663667],[32.478863509,49.340850112]],[[32.466251379,49.328242119],[32.49851,49.310486001],[32.595809921,49.276004417],[32.595664995,49.276241319],[32.466251379,49.328242119]],[[32.842053225,49.027425051],[32.828679943,49.009205059],[32.843201041,49.025470969],[32.842053225,49.027425051]],[[32.828679943,49.009205059],[32.865660349,48.995314182],[32.872254002,49.00010802],[32.828679943,49.009205059]],[[30.014194173,48.542197569],[30.005839495,48.573071786],[30.003347163,48.551631236],[30.014194173,48.542197569]],[[30.005839495,48.573071786],[29.94839484,48.594399229],[29.948187581,48.593386386],[30.005839495,48.573071786]],[[27.231163619,50.566737584],[27.130690698,50.560865164],[27.196326655,50.562095923],[27.199338014,50.553860081],[27.231163619,50.566737584]],[[27.130690698,50.560865164],[27.117997844,50.594694449],[27.079462597,50.583675987],[27.118423343,50.593220098],[27.130690698,50.560865164]],[[27.505400954,49.110351841],[27.479237549,49.088773832],[27.505420927,49.110334797],[27.505400954,49.110351841]],[[27.479237549,49.088773832],[27.502719545,49.066811805],[27.503930918,49.066767244],[27.479237549,49.088773832]],[[26.561920621,48.461079382],[26.486399775,48.545097092],[26.553693868,48.463384846],[26.561920621,48.461079382]],[[26.486399775,48.545097092],[26.434832246,48.542267019],[26.440020872,48.540154668],[26.486399775,48.545097092]],[[26.277806072,50.183250389],[26.287601651,50.184416059],[26.323983425,50.231146621],[26.277806072,50.183250389]],[[26.323983425,50.231146621],[26.386828239,50.260788201],[26.383024738,50.260724089],[26.323983425,50.231146621]],[[35.420044376,48.100039541],[35.289874116,48.143880123],[35.105167059,48.131009146],[35.315341401,48.134981196],[35.420044376,48.100039541]],[[35.105167059,48.131009146],[35.061010491,48.121286677],[35.05166037,48.112056122],[35.105167059,48.131009146]],[[22.874510444,48.957158392],[22.873236284,48.956792937],[22.874007045,48.952620038],[22.874510444,48.957158392]],[[22.877147876,48.935615576],[22.877690158,48.932679662],[22.89822256,48.904347114],[22.877147876,48.935615576]],[[22.970474164,48.874365885],[22.974743399,48.844851875],[22.985127623,48.838787919],[22.970474164,48.874365885]],[[23.788961487,48.640660579],[23.786622904,48.605821114],[23.791674606,48.598501011],[23.788961487,48.640660579]],[[23.797363102,48.590258171],[23.803993073,48.580651099],[23.835466221,48.579427581],[23.797363102,48.590258171]],[[23.857894561,48.552839528],[23.858143043,48.552544961],[23.906787929,48.562972168],[23.857894561,48.552839528]],[[23.925027514,48.465289732],[23.965365,48.458333894],[23.965526503,48.458541553],[23.925027514,48.465289732]],[[24.03431122,48.501281342],[24.124613702,48.532794854],[24.123547542,48.533820933],[24.03431122,48.501281342]],[[24.125096546,48.532330161],[24.114126719,48.497171947],[24.133002426,48.52472149],[24.125096546,48.532330161]],[[24.148156091,48.389147423],[24.148169671,48.388921997],[24.164663533,48.376307418],[24.148156091,48.389147423]],[[24.179772524,48.364751995],[24.180143016,48.364468641],[24.258030507,48.349705],[24.258313398,48.349990913],[24.179772524,48.364751995]],[[24.54523611,48.216193879],[24.545323466,48.216075574],[24.545369699,48.216133365],[24.54523611,48.216193879]],[[24.595670111,48.089959269],[24.626975005,48.047104501],[24.627089478,48.047176135],[24.595670111,48.089959269]],[[24.619413456,48.042372712],[24.57607113,48.016156496],[24.575571873,48.014937974],[24.619413456,48.042372712]],[[33.466751845,44.570575046],[33.460851463,44.572638239],[33.462641459,44.569962697],[33.466751845,44.570575046]],[[33.447922318,44.577159188],[33.443037692,44.578867201],[33.445455515,44.570970215],[33.447922318,44.577159188]],[[33.620234136,44.515344271],[33.621440922,44.516346799],[33.617402982,44.516362546],[33.620234136,44.515344271]],[[33.587868257,44.516477722],[33.580104,44.516508],[33.583974701,44.513518102],[33.587868257,44.516477722]],[[34.244737315,47.42741725],[34.241905414,47.434807124],[34.232324721,47.438794167],[34.244737315,47.42741725]],[[33.233242098,47.577404817],[33.171211926,47.566818574],[33.171669628,47.566749443],[33.233242098,47.577404817]],[[32.962808808,47.592130988],[32.997130803,47.616552436],[32.959779751,47.592018395],[32.962808808,47.592130988]],[[33.0782823,47.920376871],[33.010652406,47.912683387],[33.012716476,47.910444879],[33.0782823,47.920376871]],[[33.00005521,47.985262204],[33.022489415,47.984274775],[33.004751545,47.988684063],[32.990162155,48.04823477],[33.00005521,47.985262204]],[[33.024415104,47.984190017],[33.024913016,47.984168102],[33.03631503,48.033880533],[33.024415104,47.984190017]],[[33.756796274,48.622837402],[33.761477239,48.624643345],[33.761334492,48.625508652],[33.756796274,48.622837402]],[[33.804933391,48.686005115],[33.80510787,48.687443476],[33.750361291,48.680737062],[33.804933391,48.686005115]],[[34.070967537,48.825026008],[34.072496593,48.823771075],[34.085017436,48.823091372],[34.070967537,48.825026008]],[[34.118602513,48.818466792],[34.125513071,48.779064587],[34.122705969,48.817901756],[34.118602513,48.818466792]],[[34.593976818,49.093344634],[34.590115673,49.11218661],[34.58974523,49.112119814],[34.593976818,49.093344634]],[[34.923096349,49.170268038],[34.946405611,49.189961103],[34.926908949,49.184342031],[34.923096349,49.170268038]],[[34.949397125,49.190823278],[35.012152703,49.149111212],[35.014786141,49.149713379],[34.95580543,49.192670196],[34.949397125,49.190823278]],[[35.014986304,49.149759148],[35.044143089,49.156426191],[35.017717424,49.150803482],[34.980248482,49.250034086],[35.014986304,49.149759148]],[[36.640303679,48.092407214],[36.628953811,48.085584406],[36.650980531,48.088238954],[36.640303679,48.092407214]],[[36.61783011,48.084243834],[36.601846318,48.090855351],[36.580615834,48.079758959],[36.61783011,48.084243834]],[[36.580353863,48.079622036],[36.580098534,48.079488585],[36.58722738,48.052346608],[36.580353863,48.079622036]],[[36.568737152,48.011270421],[36.568404055,48.011137723],[36.586313595,48.000677491],[36.568737152,48.011270421]],[[36.585003042,47.847145604],[36.47310394,47.824225656],[36.474103329,47.82412445],[36.586528491,47.846968554],[36.585003042,47.847145604]],[[36.602943754,47.845063332],[36.587547627,47.785467372],[36.606691118,47.844628398],[36.602943754,47.845063332]],[[36.29416142,46.639125958],[36.296252348,46.641748506],[36.271812982,46.651787808],[36.29416142,46.639125958]],[[37.92306127,49.542090625],[37.92078961,49.538842673],[37.925623592,49.541592882],[37.92306127,49.542090625]],[[37.910018893,49.532714862],[37.846790025,49.52058258],[37.885618107,49.518832463],[37.910018893,49.532714862]],[[37.845587044,49.489553587],[37.843865703,49.445154325],[37.850868127,49.4877401],[37.845587044,49.489553587]],[[37.87842979,49.41342351],[37.896008357,49.40328992],[37.896037737,49.403506444],[37.87842979,49.41342351]],[[37.866169996,49.246355521],[37.843487395,49.201377611],[37.87215248,49.237575314],[37.866169996,49.246355521]],[[37.892698418,49.160572949],[37.924195413,49.144468364],[38.033033408,49.127838097],[37.892698418,49.160572949]],[[38.037169799,49.127206063],[38.039778324,49.126807485],[38.043336278,49.150573607],[38.037169799,49.127206063]],[[38.313059541,48.684002263],[38.258049903,48.667950364],[38.231324223,48.653133636],[38.313059541,48.684002263]],[[39.090938815,47.940495286],[39.065573183,47.895559141],[39.065612951,47.895442109],[39.090938815,47.940495286]],[[37.043214751,48.766546132],[37.032109996,48.749395985],[37.032436333,48.749217129],[37.043214751,48.766546132]],[[37.029116546,48.751036609],[36.968922498,48.793325545],[36.949815137,48.794499443],[37.029116546,48.751036609]],[[35.032528443,50.180153934],[34.963823476,50.184799123],[34.963916916,50.184546857],[35.032528443,50.180153934]],[[34.97355345,50.158530431],[34.940732176,50.152360408],[34.940784822,50.152353196],[34.97355345,50.158530431]],[[34.968447276,49.887006117],[34.970667462,49.885098691],[34.976816459,49.885164373],[34.968447276,49.887006117]],[[35.4050854,49.556092423],[35.404313497,49.555946005],[35.427429987,49.549312706],[35.4050854,49.556092423]],[[35.242479189,49.296696197],[35.091272239,49.300366067],[35.091302304,49.300324872],[35.242479189,49.296696197]],[[35.079059425,49.317099931],[35.024540226,49.325259805],[35.024216102,49.324709308],[35.079059425,49.317099931]],[[34.691632877,50.111215838],[34.677294267,50.111050036],[34.691306426,50.109660377],[34.691632877,50.111215838]],[[34.259604829,50.434390954],[34.248818448,50.518381188],[34.246134442,50.519742593],[34.259604829,50.434390954]],[[33.28210804,50.548966572],[33.276344039,50.553428301],[33.244439454,50.539768264],[33.28210804,50.548966572]],[[33.117740645,50.505073501],[33.064453486,50.520880769],[33.065279573,50.519827848],[33.061636421,50.518246638],[33.117740645,50.505073501]],[[33.016190945,50.470720754],[32.972780406,50.475796521],[32.972579967,50.473987095],[33.016190945,50.470720754]],[[32.91206304,50.423624881],[32.912083972,50.406137672],[32.915578942,50.407145406],[32.91206304,50.423624881]],[[32.08945078,50.24697712],[32.118200425,50.228422451],[32.086452847,50.221429122],[32.125555435,50.224775406],[32.08945078,50.24697712]],[[32.757202059,49.575548004],[32.753272179,49.546627462],[32.757309496,49.575500062],[32.757202059,49.575548004]],[[32.75007588,49.523769343],[32.709984001,49.499018],[32.750047737,49.523568079],[32.75007588,49.523769343]],[[32.651646526,49.436256111],[32.650900768,49.435843014],[32.678989142,49.425299625],[32.651646526,49.436256111]],[[32.46315206,49.346625931],[32.460670613,49.343374388],[32.477394993,49.341389966],[32.46315206,49.346625931]],[[32.601628778,49.266492664],[32.608463949,49.253772565],[32.609389891,49.253806017],[32.601628778,49.266492664]],[[32.762718925,49.23298836],[32.846079945,49.244771389],[32.815320544,49.249149406],[32.762718925,49.23298836]],[[32.92169525,49.234008984],[32.923117,49.233745001],[32.923284353,49.233782805],[32.92169525,49.234008984]],[[32.975490233,49.242911106],[32.978290458,49.240907653],[32.977785798,49.243352475],[32.975490233,49.242911106]],[[33.109687518,49.179614535],[33.157717851,49.130576863],[33.110822847,49.179541042],[33.109687518,49.179614535]],[[33.20144301,49.073173334],[33.244908692,49.079206063],[33.244549909,49.084247668],[33.20144301,49.073173334]],[[33.24039969,49.165546102],[33.241971365,49.164619323],[33.240283191,49.166706441],[33.24039969,49.165546102]],[[33.664490606,48.978316617],[33.709518971,48.940882248],[33.665287566,48.97844646],[33.664490606,48.978316617]],[[33.81408772,48.93722482],[33.84093789,48.925358623],[33.818313546,48.937077016],[33.81408772,48.93722482]],[[32.814723243,49.073952547],[32.814172075,49.073792563],[32.825368994,49.055828856],[32.814723243,49.073952547]],[[32.856954146,48.988984439],[32.733286953,48.964752633],[32.845228221,48.980459242],[32.856954146,48.988984439]],[[32.64527392,48.955477126],[32.607591045,48.964493691],[32.611428581,48.953690034],[32.64527392,48.955477126]],[[30.948721204,48.771561976],[30.943614528,48.772187575],[30.945333269,48.758924632],[30.948721204,48.771561976]],[[30.803947566,48.756839835],[30.75332902,48.76988632],[30.721780117,48.764999103],[30.803947566,48.756839835]],[[30.162857304,48.503780128],[30.11401296,48.454617992],[30.117869049,48.452923005],[30.162857304,48.503780128]],[[30.049839639,48.482826086],[29.961184282,48.472965089],[29.966744973,48.491425895],[29.951311849,48.450097294],[29.968044046,48.472061843],[30.049839639,48.482826086]],[[29.772684812,48.272221778],[29.776648408,48.233953574],[29.78243429,48.242237005],[29.772684812,48.272221778]],[[29.778609694,48.215017516],[29.779459578,48.206811949],[29.783852585,48.207228048],[29.778609694,48.215017516]],[[29.841539801,48.212029958],[29.891821649,48.185724277],[29.843028258,48.212232446],[29.841539801,48.212029958]],[[30.029124971,48.179816897],[30.035777609,48.173840644],[30.032550195,48.179258182],[30.029124971,48.179816897]],[[30.065124254,48.147477726],[30.067731396,48.145135656],[30.076792838,48.145243151],[30.065124254,48.147477726]],[[30.139956216,48.145992455],[30.254611637,48.147352605],[30.187615748,48.154820977],[30.139956216,48.145992455]],[[30.321578002,48.149328823],[30.364386219,48.173352044],[30.32759416,48.160024446],[30.321578002,48.149328823]],[[30.365951302,48.173918982],[30.367791368,48.173862297],[30.366595901,48.174152482],[30.365951302,48.173918982]],[[30.981017136,48.222140217],[31.054720707,48.22594169],[31.053019139,48.232284005],[30.981017136,48.222140217]],[[31.582615447,48.128762806],[31.637852043,48.124600893],[31.633614608,48.134765018],[31.582615447,48.128762806]],[[31.827403163,47.816517967],[31.837703386,47.782798183],[31.83848866,47.782922886],[31.827403163,47.816517967]],[[31.153710391,46.741432273],[31.152872912,46.74049428],[31.154046881,46.739074079],[31.153710391,46.741432273]],[[31.175845508,46.651847283],[31.18696533,46.642700542],[31.190104311,46.647221895],[31.175845508,46.651847283]],[[30.006341768,48.513360895],[29.998206663,48.51742913],[29.989010629,48.516693253],[30.006341768,48.513360895]],[[29.703790101,49.225406171],[29.75465766,49.22628667],[29.716238072,49.235871923],[29.736744463,49.228610103],[29.703790101,49.225406171]],[[29.63887295,49.247427499],[29.613050856,49.265435235],[29.638764191,49.247448886],[29.63887295,49.247427499]],[[29.535272664,49.636688313],[29.508865442,49.65523153],[29.505177417,49.64909507],[29.431341401,49.661970456],[29.535272664,49.636688313]],[[29.597121588,50.729122939],[29.59717609,50.729201572],[29.569836202,50.771525306],[29.597121588,50.729122939]],[[29.320365266,51.127219037],[29.269200618,51.260323354],[29.268839556,51.260263604],[29.320365266,51.127219037]],[[29.32853477,51.27014224],[29.341380474,51.271154891],[29.343592046,51.272633987],[29.32853477,51.27014224]],[[29.357523041,51.281951014],[29.368396265,51.289223009],[29.363608183,51.297121],[29.357523041,51.281951014]],[[27.24459731,50.673073992],[27.203724945,50.666189536],[27.204580468,50.663917388],[27.24459731,50.673073992]],[[27.21372354,50.639634668],[27.186380904,50.625402848],[27.186471047,50.625357443],[27.21372354,50.639634668]],[[27.258781868,50.512998327],[27.267781046,50.49179761],[27.25892204,50.512946942],[27.258781868,50.512998327]],[[27.668018492,49.807841551],[27.719304084,49.800820648],[27.717228867,49.805790376],[27.668018492,49.807841551]],[[27.72230425,49.793635852],[27.703631474,49.769005205],[27.723679356,49.79034275],[27.72230425,49.793635852]],[[27.808786682,49.729069606],[27.837020968,49.729809927],[27.820667314,49.740661137],[27.808786682,49.729069606]],[[27.811478126,49.644597428],[27.811761498,49.618340809],[27.812180085,49.618657233],[27.811478126,49.644597428]],[[27.809374774,49.616536605],[27.799855648,49.621023733],[27.763367532,49.581758202],[27.809374774,49.616536605]],[[27.759694634,49.57780573],[27.758309162,49.576314798],[27.777437552,49.564794053],[27.759694634,49.57780573]],[[27.790651561,49.555103628],[27.794016506,49.530809354],[27.794124334,49.530869659],[27.793311562,49.55315293],[27.790651561,49.555103628]],[[27.791163312,49.487913021],[27.763756199,49.478349272],[27.757651142,49.460700689],[27.791163312,49.487913021]],[[27.753609549,49.449017195],[27.75040115,49.439742309],[27.816328962,49.431400397],[27.80723688,49.439521187],[27.753609549,49.449017195]],[[27.639813977,49.166994707],[27.603217377,49.162330487],[27.602572431,49.161310235],[27.639813977,49.166994707]],[[27.60079889,49.15850464],[27.577542415,49.121714816],[27.597572191,49.135085998],[27.60079889,49.15850464]],[[27.534946677,49.121593158],[27.507766258,49.131479913],[27.506495933,49.130634742],[27.534946677,49.121593158]],[[27.4948619,49.122894398],[27.492638913,49.121415402],[27.492699904,49.121362884],[27.4948619,49.122894398]],[[27.485009241,49.06746329],[27.44150438,49.070129953],[27.439889476,49.06912305],[27.485009241,49.06746329]],[[27.432489647,49.064509211],[27.416573774,49.054585564],[27.383284274,49.007739172],[27.432489647,49.064509211]],[[27.38136764,48.65527256],[27.354104237,48.61825717],[27.372910786,48.630152122],[27.38136764,48.65527256]],[[27.479100856,48.528797606],[27.478797417,48.506353424],[27.489854152,48.499156916],[27.479100856,48.528797606]],[[27.328921472,48.602329326],[27.320418052,48.600906804],[27.323616246,48.598973824],[27.328921472,48.602329326]],[[27.267730921,48.624649761],[27.263923881,48.626759683],[27.258792849,48.623842964],[27.267730921,48.624649761]],[[27.264094774,48.582819319],[27.247996546,48.56525582],[27.266379005,48.580866502],[27.264094774,48.582819319]],[[26.675218244,48.538626147],[26.71169935,48.494840812],[26.713067996,48.495137853],[26.675218244,48.538626147]],[[26.67369122,48.486591804],[26.668975698,48.485732504],[26.669254659,48.485628925],[26.67369122,48.486591804]],[[26.666319831,48.486718638],[26.616244857,48.508054474],[26.614246374,48.506053723],[26.666319831,48.486718638]],[[26.613057321,48.504863321],[26.607072046,48.498871254],[26.620867542,48.461790296],[26.625834205,48.464067628],[26.613057321,48.504863321]],[[26.611667136,48.457571693],[26.582514609,48.455308126],[26.597544529,48.451096144],[26.611667136,48.457571693]],[[26.390150146,48.533970486],[26.387859851,48.533771932],[26.355231349,48.507685571],[26.355840877,48.507677727],[26.390150146,48.533970486]],[[26.347482235,48.507785295],[26.304313397,48.508989829],[26.304966193,48.508332436],[26.347482235,48.507785295]],[[26.269350256,48.538630694],[26.267858001,48.539975001],[26.232322827,48.536112232],[26.269350256,48.538630694]],[[26.163480842,48.531429867],[26.146610498,48.546247889],[26.161409146,48.531288958],[26.163480842,48.531429867]],[[26.091293637,48.539331402],[26.043777674,48.586281278],[26.090895999,48.539164],[26.091293637,48.539331402]],[[26.047383484,48.647401407],[26.046647,48.649004],[26.045215865,48.646846305],[26.047383484,48.647401407]],[[25.97364,48.620521],[25.915889013,48.587646175],[25.919676999,48.587123],[25.97364,48.620521]],[[25.862004235,48.595088428],[25.849724301,48.597021609],[25.849647999,48.596795],[25.862004235,48.595088428]],[[25.854657019,48.619024046],[25.855000101,48.620379419],[25.842128609,48.630314748],[25.854657019,48.619024046]],[[25.783343152,48.675690439],[25.735896167,48.635526936],[25.738021999,48.633207],[25.783343152,48.675690439]],[[25.716614053,48.656569646],[25.711900025,48.662983865],[25.710570184,48.663165364],[25.716614053,48.656569646]],[[25.692791275,48.665591865],[25.624014225,48.674978695],[25.585120457,48.633999728],[25.628090107,48.672825492],[25.692791275,48.665591865]],[[25.136016045,48.181297462],[25.088039737,48.181183936],[25.136457848,48.180652571],[25.136016045,48.181297462]],[[25.036586001,48.11171],[24.982124091,48.113419489],[24.982929258,48.111627161],[25.036586001,48.11171]],[[24.992267399,48.090840163],[24.99413086,48.086692039],[24.994571799,48.087009159],[24.992267399,48.090840163]],[[24.911713351,48.027418042],[24.912930774,48.001232298],[24.920176917,48.009286422],[24.911713351,48.027418042]],[[24.914240728,47.973056312],[24.914447649,47.968605612],[24.915669164,47.967364981],[24.914240728,47.973056312]],[[24.920629338,47.947602121],[24.919204813,47.94651915],[24.92126306,47.945077175],[24.920629338,47.947602121]],[[24.957111241,47.919756183],[24.957157716,47.919579456],[24.957193846,47.919703877],[24.957111241,47.919756183]],[[24.951612472,47.900483073],[24.944518508,47.89790429],[24.948885365,47.891091624],[24.951612472,47.900483073]],[[24.950463313,47.888629892],[24.956533926,47.879159223],[24.993335958,47.857903722],[24.950463313,47.888629892]],[[24.997035742,47.855252144],[24.946669138,47.794250954],[24.997284741,47.85507369],[24.997035742,47.855252144]],[[25.652953113,48.705469074],[25.613482402,48.723999445],[25.610549115,48.720952856],[25.652953113,48.705469074]],[[25.631592212,48.742808771],[25.639483861,48.749159613],[25.638344545,48.749821922],[25.631592212,48.742808771]],[[25.454334364,48.831625513],[25.46959849,48.856106035],[25.453647871,48.831850706],[25.454334364,48.831625513]],[[25.167014412,48.892319555],[25.166654,48.892060639],[25.166805492,48.891425437],[25.167014412,48.892319555]],[[25.161670628,48.869449757],[25.154167567,48.867999715],[25.160728426,48.865417416],[25.161670628,48.869449757]],[[25.152411888,48.868690735],[25.118657491,48.92068818],[25.118486817,48.920553649],[25.136656493,48.874891926],[25.152411888,48.868690735]],[[25.108487384,48.965189048],[25.115315106,48.996035493],[25.113520453,48.994971963],[25.108487384,48.965189048]],[[24.905921788,49.052613954],[24.916308291,49.083007177],[24.902992149,49.054518725],[24.905921788,49.052613954]],[[24.930773135,49.233304664],[24.933384819,49.235262624],[24.845483398,49.262027803],[24.930773135,49.233304664]],[[24.843683451,49.262633974],[24.843403601,49.263043978],[24.843492122,49.262698408],[24.843683451,49.262633974]],[[24.828718927,49.320370174],[24.828721542,49.320514629],[24.828689001,49.320486999],[24.828718927,49.320370174]],[[24.828518876,49.385505042],[24.828431762,49.38588501],[24.778361066,49.381225198],[24.828518876,49.385505042]],[[24.723164056,49.493706543],[24.722311284,49.506291572],[24.720709275,49.496901694],[24.723164056,49.493706543]],[[24.507580126,49.535511701],[24.523823566,49.540188724],[24.520989355,49.541863918],[24.507580126,49.535511701]],[[24.517352384,49.544013593],[24.495279185,49.55706022],[24.489625558,49.555188691],[24.517352384,49.544013593]],[[24.435846077,49.537385986],[24.434782914,49.537034045],[24.434839486,49.536886895],[24.435846077,49.537385986]],[[24.299576055,49.298362813],[24.298812585,49.292050027],[24.304418003,49.279460828],[24.299576055,49.298362813]],[[24.305262767,49.277563573],[24.305381057,49.277297906],[24.338963784,49.291969859],[24.305262767,49.277563573]],[[24.391054885,49.180740309],[24.375177227,49.188692403],[24.363360665,49.184919525],[24.391054885,49.180740309]],[[24.17187191,49.143732225],[24.156763915,49.129611429],[24.164704133,49.127536737],[24.17187191,49.143732225]],[[23.695271363,49.096272451],[23.691086589,49.096296052],[23.688841805,49.088868437],[23.695271363,49.096272451]],[[23.6830627,49.069746351],[23.672845999,49.035941001],[23.687776039,49.065753652],[23.6830627,49.069746351]],[[24.791193038,49.572680114],[24.828255949,49.592808546],[24.828127901,49.59294211],[24.791193038,49.572680114]],[[24.829426925,49.59158713],[24.836552802,49.579997047],[24.836039279,49.584689946],[24.829426925,49.59158713]],[[24.834848033,49.595576296],[24.83442174,49.599472028],[24.833622404,49.599261026],[24.834848033,49.595576296]],[[24.836572255,49.600039702],[24.902169396,49.608747138],[24.871416649,49.609237624],[24.836572255,49.600039702]],[[24.9351726,49.61312802],[24.947889583,49.614816086],[24.929750972,49.617355833],[24.9351726,49.61312802]],[[24.952409235,49.61541603],[24.954165544,49.615649164],[24.966475711,49.640753869],[24.952409235,49.61541603]],[[25.110653658,49.742352857],[25.114879704,49.74538209],[25.072344096,49.770216345],[25.110653658,49.742352857]],[[25.180341644,49.838029828],[25.285906115,49.827896389],[25.286150541,49.828374171],[25.180341644,49.838029828]],[[25.422372627,49.940904335],[25.426897585,49.941972274],[25.403875976,49.947756429],[25.422372627,49.940904335]],[[25.336159947,50.013453722],[25.234496094,50.096046625],[25.311213839,50.023845263],[25.336159947,50.013453722]],[[25.855024049,50.189892915],[25.939826861,50.256216928],[25.931345405,50.256138701],[25.855024049,50.189892915]],[[25.943306685,50.256249024],[26.008695656,50.228748373],[25.962735714,50.256428225],[25.943306685,50.256249024]],[[26.06500352,50.257387532],[26.165010141,50.230776603],[26.165167395,50.230967802],[26.06500352,50.257387532]],[[26.221238389,50.266827899],[26.217356001,50.239305001],[26.185369092,50.229129823],[26.218122778,50.230166881],[26.221238389,50.266827899]],[[26.218517226,50.177597177],[26.217891122,50.176120532],[26.220794234,50.176466001],[26.218517226,50.177597177]],[[26.523733043,50.306920554],[26.560642921,50.316993288],[26.527281077,50.310946746],[26.523733043,50.306920554]],[[26.601834161,50.36817635],[26.647964205,50.364575302],[26.601868553,50.368240796],[26.601834161,50.36817635]],[[26.786549859,50.467714096],[26.76256742,50.47583851],[26.761561361,50.470457004],[26.786549859,50.467714096]],[[26.763676865,50.481773038],[26.769825302,50.49030926],[26.76504299,50.489080574],[26.763676865,50.481773038]],[[26.215588813,50.170690614],[26.20856922,50.154135145],[26.220899564,50.164642776],[26.215588813,50.170690614]],[[26.198516306,48.918240325],[26.18380285,48.915793016],[26.184073436,48.915531092],[26.198516306,48.918240325]],[[26.237391061,48.696813067],[26.236438437,48.696161386],[26.237520895,48.696628999],[26.237391061,48.696813067]],[[26.224405826,48.687929996],[26.221371185,48.685854028],[26.245286611,48.684001398],[26.224405826,48.687929996]],[[26.277151602,48.672594999],[26.273065614,48.647173665],[26.278527993,48.67281761],[26.277151602,48.672594999]],[[26.360651892,48.542434294],[26.360511403,48.541686915],[26.37965479,48.564487993],[26.379403001,48.564666197],[26.360651892,48.542434294]],[[25.206462315,50.247289602],[25.204898982,50.279219654],[25.204623565,50.279261769],[25.206462315,50.247289602]],[[25.181058244,50.282865206],[25.101319947,50.295058204],[25.102864287,50.293988663],[25.181058244,50.282865206]],[[25.054585115,50.300856601],[25.05425979,50.300932957],[25.05425644,50.300903357],[25.054585115,50.300856601]],[[24.312461169,50.571551551],[24.225476871,50.589110232],[24.231095634,50.583365965],[24.312461169,50.571551551]],[[24.1872847,50.615270667],[24.154721795,50.646611131],[24.173390888,50.616516522],[24.1872847,50.615270667]],[[25.550110645,51.519307825],[25.554480932,51.503959857],[25.554522715,51.503962123],[25.550110645,51.519307825]],[[25.995721884,51.227816909],[26.065258695,51.178633624],[26.065390638,51.179356878],[25.995721884,51.227816909]],[[26.058686787,51.142609409],[25.993246361,51.139258415],[25.994131259,51.129797423],[26.058686787,51.142609409]],[[25.941605041,51.114895972],[25.938060796,51.114328953],[25.941602738,51.110995437],[25.941605041,51.114895972]],[[26.03458392,50.844218153],[26.021960203,50.820835175],[26.039503938,50.8417392],[26.03458392,50.844218153]],[[27.835889772,49.755513174],[27.972119605,49.778671098],[27.959975533,49.778371064],[27.835889772,49.755513174]],[[27.988034217,49.779064288],[28.044463781,49.770479596],[28.225645228,49.78493476],[27.988034217,49.779064288]],[[28.868804849,49.888487534],[28.870272957,49.88848493],[28.869296645,49.8890542],[28.868804849,49.888487534]],[[30.555328917,51.236825625],[30.554747053,51.232192877],[30.558405407,51.232564406],[30.555328917,51.236825625]],[[30.50677165,51.226090236],[30.505355818,51.225971866],[30.530439142,51.200589665],[30.50677165,51.226090236]],[[30.750796727,50.798445525],[30.738781482,50.772093238],[30.740159929,50.771978915],[30.750796727,50.798445525]],[[32.135581384,50.375641167],[32.152299883,50.370638203],[32.154665506,50.376530912],[32.135581384,50.375641167]],[[32.147391937,50.358412632],[32.141304891,50.354111339],[32.144019933,50.350013054],[32.147391937,50.358412632]],[[33.387347067,52.315800925],[33.386001677,52.316048976],[33.40282977,52.302121495],[33.387347067,52.315800925]],[[33.335522647,52.158720387],[33.322585367,52.13619658],[33.337627222,52.156590415],[33.335522647,52.158720387]],[[33.12147005,50.594692746],[33.048719835,50.540934704],[33.121978879,50.594490429],[33.12147005,50.594692746]],[[35.988260873,48.058039852],[35.988476521,48.058280886],[35.975675008,48.067931272],[35.971435803,48.06073027],[35.988260873,48.058039852]],[[35.972178665,48.092144593],[35.967780917,48.094688884],[35.816600018,48.06568214],[35.972178665,48.092144593]],[[35.005536275,48.095718144],[34.914614319,48.090810133],[34.989294357,48.089964967],[35.005536275,48.095718144]],[[34.918474125,47.933401747],[34.873320638,47.936327729],[34.880847372,47.928831833],[34.918474125,47.933401747]],[[34.804068355,47.908010567],[34.803902424,47.907964669],[34.816802271,47.864547206],[34.804068355,47.908010567]],[[34.96333967,47.55254912],[34.964350832,47.550067894],[34.965178559,47.551129848],[34.96333967,47.55254912]],[[34.958144348,47.542105124],[34.947403053,47.532295788],[34.95106016,47.53301628],[34.958144348,47.542105124]],[[34.869938638,47.51703442],[34.844284676,47.52107174],[34.861230102,47.51531874],[34.869938638,47.51703442]],[[34.616745734,47.556880922],[34.582003101,47.562348581],[34.577542585,47.561167396],[34.616745734,47.556880922]],[[33.033486976,47.441337259],[33.028675235,47.423700679],[33.034128054,47.400658381],[33.033486976,47.441337259]],[[32.918212803,47.144041224],[32.917855011,47.143656602],[32.909540852,47.094180149],[32.914823533,47.09172245],[32.918212803,47.144041224]],[[33.663317815,46.221484389],[33.646014999,46.229699],[33.615277,46.226394999],[33.663317815,46.221484389]],[[30.236750469,50.430517863],[30.236686053,50.430285812],[30.269308099,50.426211817],[30.236750469,50.430517863]],[[30.817408694,50.564601218],[30.785547821,50.578322439],[30.718113546,50.590757525],[30.817408694,50.564601218]],[[30.567159688,50.515632032],[30.462868429,50.584425348],[30.450990797,50.583601319],[30.567159688,50.515632032]],[[30.386196198,50.579106095],[30.370938244,50.578047551],[30.307402122,50.57058381],[30.386196198,50.579106095]],[[30.785311195,51.538846259],[30.70885535,51.553079579],[30.745603633,51.540407484],[30.785311195,51.538846259]],[[30.721546152,50.521934633],[30.723472501,50.51099538],[30.730516851,50.512851661],[30.721546152,50.521934633]],[[30.74327337,50.519491312],[30.734450515,50.513888235],[30.751992562,50.518510801],[30.74327337,50.519491312]],[[30.32487242,50.490430101],[30.318841324,50.487567985],[30.351776089,50.484580822],[30.32487242,50.490430101]],[[30.338416131,50.495444802],[30.337319164,50.496336828],[30.333907919,50.494717988],[30.338416131,50.495444802]]],[[[36.217928118,46.546838445],[36.176492647,46.503741913],[36.113102176,46.488962787],[36.100210037,46.492800228],[36.148133882,46.50764622],[36.15284409,46.541656198],[36.171143293,46.523385643],[36.217928118,46.546838445]]],[[[35.277658658,46.264447438],[35.21409594,46.190852312],[35.222462833,46.221160206],[35.277658658,46.264447438]]],[[[35.210761855,46.186991993],[35.168785088,46.138389832],[34.982641434,46.077403377],[34.989800842,46.104259736],[35.030487324,46.12704791],[35.038132641,46.147677134],[35.210761855,46.186991993]]],[[[37.324990895,46.886298098],[37.309109461,46.871207336],[37.283913993,46.871316796],[37.324990895,46.886298098]]],[[[36.431605656,45.261083407],[36.427231041,45.277162803],[36.437207641,45.270267748],[36.431605656,45.261083407]]],[[[31.55293336,46.277973708],[31.523171928,46.301969879],[31.511784147,46.34928147],[31.532427253,46.369982735],[31.534874727,46.306776733],[31.55293336,46.277973708]]],[[[36.543828515,45.277833503],[36.577414927,45.249818535],[36.52531477,45.288348929],[36.543828515,45.277833503]]],[[[34.314711058,46.017473661],[34.328102,46.014352999],[34.304533001,46.008272],[34.314711058,46.017473661]]],[[[33.926185,46.100993999],[33.922802986,46.08167036],[33.906832,46.1008855],[33.926185,46.100993999]]],[[[32.769688942,46.032625312],[32.86284912,46.061066549],[32.911528806,46.036750856],[32.942007313,46.046864333],[33.081639168,46.015646688],[32.877067218,46.015303061],[32.769688942,46.032625312]]],[[[31.767913454,46.385432588],[31.775589126,46.37288985],[31.728330418,46.422697251],[31.767913454,46.385432588]]],[[[29.6383488,45.477875127],[29.648781401,45.471620576],[29.624695313,45.478037694],[29.6383488,45.477875127]]]]}}}